[
    {
        "CCSDS_OMM_VERS": "3.0",
        "COMMENT": "GENERATED VIA SPACE-TRACK.ORG API",
        "CREATION_DATE": "2025-04-14T03:05:54",
        "ORIGINATOR": "18 SPCS",
        "OBJECT_NAME": "BEIDOU 3M3",
        "OBJECT_ID": "2018-003A",
        "CENTER_NAME": "EARTH",
        "REF_FRAME": "TEME",
        "TIME_SYSTEM": "UTC",
        "MEAN_ELEMENT_THEORY": "SGP4",
        "EPOCH": "2025-04-13T06:04:59.479680",
        "MEAN_MOTION": "1.86232646",
        "ECCENTRICITY": "0.00049810",
        "INCLINATION": "54.7028",
        "RA_OF_ASC_NODE": "317.2630",
        "ARG_OF_PERICENTER": "70.7821",
        "MEAN_ANOMALY": "289.3053",
        "EPHEMERIS_TYPE": "0",
        "CLASSIFICATION_TYPE": "U",
        "NORAD_CAT_ID": "43107",
        "ELEMENT_SET_NO": "999",
        "REV_AT_EPOCH": "4934",
        "BSTAR": "0.00000000000000",
        "MEAN_MOTION_DOT": "-0.00000069",
        "MEAN_MOTION_DDOT": "0.0000000000000",
        "SEMIMAJOR_AXIS": "27906.024",
        "PERIOD": "773.226",
        "APOAPSIS": "21541.789",
        "PERIAPSIS": "21513.989",
        "OBJECT_TYPE": "PAYLOAD",
        "RCS_SIZE": "LARGE",
        "COUNTRY_CODE": "PRC",
        "LAUNCH_DATE": "2018-01-11",
        "SITE": "XSC",
        "DECAY_DATE": null,
        "FILE": "4701263",
        "GP_ID": "285538347",
        "TLE_LINE0": "0 BEIDOU 3M3",
        "TLE_LINE1": "1 43107U 18003A   25103.25346620 -.00000069  00000-0  00000-0 0  9992",
        "TLE_LINE2": "2 43107  54.7028 317.2630 0004981  70.7821 289.3053  1.86232646 49340"
    }
]